{
  "norad_id": 67198,
  "name": "STARLINK-36267",
  "history": [
    {
      "epoch": "2026-03-28T20:26:37.687776Z",
      "apogee_km": 574.4225717867648,
      "perigee_km": 569.6801802502723,
      "latitude_deg": 8.192014836661923e-05,
      "longitude_deg": -6.724035776315655,
      "height_km": 574.4337885252337,
      "semi_major_axis_km": 6950.188376018518,
      "eccentricity": 0.00034117,
      "inclination_deg": 70.001,
      "raan_deg": 126.1993,
      "arg_perigee_deg": 271.0994,
      "mean_anomaly_deg": 88.9775,
      "mean_motion_rev_day": 14.9833146
    }
  ]
}