{"fetched_at":"2026-03-29T16:36:15Z","count":15609,"tles":[{"name":"STARLINK-36267","line1":"1 67198U 25304G   26087.85182509  .00007569  00000+0  64144-3 0  9994","line2":"2 67198  70.0010 126.1993 0003411 271.0994  88.9775 14.98331460 16722","category":"Starlink"}]}